{"type": "FeatureCollection", "features": [ {"type": "Feature", "properties": {"norad_id": 30629, "name": "FENGYUN 1C DEB", "group": "fengyun-1c-debris", "lat": -1.4542058901097032, "lon": 80.39425439152107, "alt_km": 703.0058457900277, "timestamp": "2025-12-10T11:33:53.662928+00:00", "meta": {"OBJECT_NAME": "FENGYUN 1C DEB", "OBJECT_ID": "1999-025ANL", "EPOCH": "2025-12-09T22:41:03.753312", "MEAN_MOTION": 14.59440036, "ECCENTRICITY": 0.0007712, "INCLINATION": 99.2513, "RA_OF_ASC_NODE": 79.5595, "ARG_OF_PERICENTER": 204.9246, "MEAN_ANOMALY": 215.5303, "EPHEMERIS_TYPE": 0, "CLASSIFICATION_TYPE": "U", "NORAD_CAT_ID": 30629, "ELEMENT_SET_NO": 999, "REV_AT_EPOCH": 97849, "BSTAR": 0.0043302, "MEAN_MOTION_DOT": 0.0002054, "MEAN_MOTION_DDOT": 0}, "tle": {"line1": "1 30629U 99025ANL 25343.94518233  .00020540  00000+0  43302-2 0  9991", "line2": "2 30629  99.2513  79.5595 0007712 204.9246 215.5303 14.59440036978497"}}, "geometry": {"type": "Point", "coordinates": [80.39425439152107, -1.4542058901097032]}}, {"type": "Feature", "properties": {"norad_id": 30630, "name": "FENGYUN 1C DEB", "group": "fengyun-1c-debris", "lat": -75.68360860994713, "lon": -61.85495325063408, "alt_km": 843.3473416212528, "timestamp": "2025-12-10T11:33:53.662938+00:00", "meta": {"OBJECT_NAME": "FENGYUN 1C DEB", "OBJECT_ID": "1999-025ANM", "EPOCH": "2025-12-09T23:15:02.966112", "MEAN_MOTION": 14.223604, "ECCENTRICITY": 0.0025985, "INCLINATION": 99.1728, "RA_OF_ASC_NODE": 156.8943, "ARG_OF_PERICENTER": 82.4169, "MEAN_ANOMALY": 70.7143, "EPHEMERIS_TYPE": 0, "CLASSIFICATION_TYPE": "U", "NORAD_CAT_ID": 30630, "ELEMENT_SET_NO": 999, "REV_AT_EPOCH": 97173, "BSTAR": 0.0012266, "MEAN_MOTION_DOT": 2.692e-05, "MEAN_MOTION_DDOT": 0}, "tle": {"line1": "1 30630U 99025ANM 25343.96878433  .00002692  00000+0  12266-2 0  9999", "line2": "2 30630  99.1728 156.8943 0025985  82.4169  70.7143 14.22360400971736"}}, "geometry": {"type": "Point", "coordinates": [-61.85495325063408, -75.68360860994713]}}, {"type": "Feature", "properties": {"norad_id": 30632, "name": "FENGYUN 1C DEB", "group": "fengyun-1c-debris", "lat": 56.49346901489319, "lon": -50.75314976857302, "alt_km": 672.9607453112303, "timestamp": "2025-12-10T11:33:53.662948+00:00", "meta": {"OBJECT_NAME": "FENGYUN 1C DEB", "OBJECT_ID": "1999-025ANP", "EPOCH": "2025-12-09T07:21:31.580928", "MEAN_MOTION": 14.62544856, "ECCENTRICITY": 0.0015204, "INCLINATION": 98.8238, "RA_OF_ASC_NODE": 114.422, "ARG_OF_PERICENTER": 179.6581, "MEAN_ANOMALY": 238.447, "EPHEMERIS_TYPE": 0, "CLASSIFICATION_TYPE": "U", "NORAD_CAT_ID": 30632, "ELEMENT_SET_NO": 999, "REV_AT_EPOCH": 97641, "BSTAR": 0.0053173, "MEAN_MOTION_DOT": 0.00027077, "MEAN_MOTION_DDOT": 0}, "tle": {"line1": "1 30632U 99025ANP 25343.30661552  .00027077  00000+0  53173-2 0  9997", "line2": "2 30632  98.8238 114.4220 0015204 179.6581 238.4470 14.62544856976417"}}, "geometry": {"type": "Point", "coordinates": [-50.75314976857302, 56.49346901489319]}}, {"type": "Feature", "properties": {"norad_id": 30633, "name": "FENGYUN 1C DEB", "group": "fengyun-1c-debris", "lat": 55.50678546956749, "lon": 42.096225682528406, "alt_km": 948.6684437005852, "timestamp": "2025-12-10T11:33:53.662958+00:00", "meta": {"OBJECT_NAME": "FENGYUN 1C DEB", "OBJECT_ID": "1999-025ANQ", "EPOCH": "2025-12-09T14:34:27.481728", "MEAN_MOTION": 14.04375509, "ECCENTRICITY": 0.0130473, "INCLINATION": 98.4203, "RA_OF_ASC_NODE": 208.8357, "ARG_OF_PERICENTER": 269.1329, "MEAN_ANOMALY": 115.9506, "EPHEMERIS_TYPE": 0, "CLASSIFICATION_TYPE": "U", "NORAD_CAT_ID": 30633, "ELEMENT_SET_NO": 999, "REV_AT_EPOCH": 95848, "BSTAR": 0.0013932, "MEAN_MOTION_DOT": 2.352e-05, "MEAN_MOTION_DDOT": 0}, "tle": {"line1": "1 30633U 99025ANQ 25343.60726252  .00002352  00000+0  13932-2 0  9998", "line2": "2 30633  98.4203 208.8357 0130473 269.1329 115.9506 14.04375509958485"}}, "geometry": {"type": "Point", "coordinates": [42.096225682528406, 55.50678546956749]}}, {"type": "Feature", "properties": {"norad_id": 30634, "name": "FENGYUN 1C DEB", "group": "fengyun-1c-debris", "lat": 80.00378156698406, "lon": -101.03697476166185, "alt_km": 769.2012862400898, "timestamp": "2025-12-10T11:33:53.662968+00:00", "meta": {"OBJECT_NAME": "FENGYUN 1C DEB", "OBJECT_ID": "1999-025ANR", "EPOCH": "2025-12-09T21:40:33.735072", "MEAN_MOTION": 14.0967487, "ECCENTRICITY": 0.0120688, "INCLINATION": 99.2927, "RA_OF_ASC_NODE": 326.6314, "ARG_OF_PERICENTER": 104.502, "MEAN_ANOMALY": 286.9959, "EPHEMERIS_TYPE": 0, "CLASSIFICATION_TYPE": "U", "NORAD_CAT_ID": 30634, "ELEMENT_SET_NO": 999, "REV_AT_EPOCH": 95577, "BSTAR": 0.0027795, "MEAN_MOTION_DOT": 5.171e-05, "MEAN_MOTION_DDOT": 0}, "tle": {"line1": "1 30634U 99025ANR 25343.90316823  .00005171  00000+0  27795-2 0  9995", "line2": "2 30634  99.2927 326.6314 0120688 104.5020 286.9959 14.09674870955775"}}, "geometry": {"type": "Point", "coordinates": [-101.03697476166185, 80.00378156698406]}}, {"type": "Feature", "properties": {"norad_id": 30639, "name": "FENGYUN 1C DEB", "group": "fengyun-1c-debris", "lat": -68.17977845689303, "lon": 119.74943401439509, "alt_km": 743.3663406886008, "timestamp": "2025-12-10T11:33:53.662978+00:00", "meta": {"OBJECT_NAME": "FENGYUN 1C DEB", "OBJECT_ID": "1999-025ANW", "EPOCH": "2025-12-09T14:05:31.983072", "MEAN_MOTION": 14.32249677, "ECCENTRICITY": 0.0067075, "INCLINATION": 99.0188, "RA_OF_ASC_NODE": 95.4487, "ARG_OF_PERICENTER": 290.4121, "MEAN_ANOMALY": 68.9867, "EPHEMERIS_TYPE": 0, "CLASSIFICATION_TYPE": "U", "NORAD_CAT_ID": 30639, "ELEMENT_SET_NO": 999, "REV_AT_EPOCH": 96674, "BSTAR": 0.004257, "MEAN_MOTION_DOT": 0.0001174, "MEAN_MOTION_DDOT": 0}, "tle": {"line1": "1 30639U 99025ANW 25343.58717573  .00011740  00000+0  42570-2 0  9998", "line2": "2 30639  99.0188  95.4487 0067075 290.4121  68.9867 14.32249677966740"}}, "geometry": {"type": "Point", "coordinates": [119.74943401439509, -68.17977845689303]}}, {"type": "Feature", "properties": {"norad_id": 30640, "name": "FENGYUN 1C DEB", "group": "fengyun-1c-debris", "lat": -29.828357629382516, "lon": -129.5909967349364, "alt_km": 862.4492987827798, "timestamp": "2025-12-10T11:33:53.662988+00:00", "meta": {"OBJECT_NAME": "FENGYUN 1C DEB", "OBJECT_ID": "1999-025ANX", "EPOCH": "2025-12-10T03:55:50.191104", "MEAN_MOTION": 14.14608582, "ECCENTRICITY": 0.0081113, "INCLINATION": 99.0566, "RA_OF_ASC_NODE": 55.3335, "ARG_OF_PERICENTER": 107.8156, "MEAN_ANOMALY": 282.3824, "EPHEMERIS_TYPE": 0, "CLASSIFICATION_TYPE": "U", "NORAD_CAT_ID": 30640, "ELEMENT_SET_NO": 999, "REV_AT_EPOCH": 96409, "BSTAR": 0.0018745, "MEAN_MOTION_DOT": 3.674e-05, "MEAN_MOTION_DDOT": 0}, "tle": {"line1": "1 30640U 99025ANX 25344.16377536  .00003674  00000+0  18745-2 0  9990", "line2": "2 30640  99.0566  55.3335 0081113 107.8156 282.3824 14.14608582964092"}}, "geometry": {"type": "Point", "coordinates": [-129.5909967349364, -29.828357629382516]}}, {"type": "Feature", "properties": {"norad_id": 30641, "name": "FENGYUN 1C DEB", "group": "fengyun-1c-debris", "lat": -5.783505344134423, "lon": -80.47975719784868, "alt_km": 708.2710459237533, "timestamp": "2025-12-10T11:33:53.662998+00:00", "meta": {"OBJECT_NAME": "FENGYUN 1C DEB", "OBJECT_ID": "1999-025ANY", "EPOCH": "2025-12-08T19:14:48.630336", "MEAN_MOTION": 14.78914798, "ECCENTRICITY": 0.01360654, "INCLINATION": 98.9421, "RA_OF_ASC_NODE": 276.7402, "ARG_OF_PERICENTER": 138.9481, "MEAN_ANOMALY": 277.5159, "EPHEMERIS_TYPE": 0, "CLASSIFICATION_TYPE": "U", "NORAD_CAT_ID": 30641, "ELEMENT_SET_NO": 999, "REV_AT_EPOCH": 474, "BSTAR": 0.00071006747, "MEAN_MOTION_DOT": 6.053e-05, "MEAN_MOTION_DDOT": 0}, "tle": {"line1": "1 30641U 99025ANY 25342.80195174  .00006053  00000+0  71007-3 0  9991", "line2": "2 30641  98.9421 276.7402 0136065 138.9481 277.5159 14.78914798  4741"}}, "geometry": {"type": "Point", "coordinates": [-80.47975719784868, -5.783505344134423]}}, {"type": "Feature", "properties": {"norad_id": 30646, "name": "FENGYUN 1C DEB", "group": "fengyun-1c-debris", "lat": -63.183129458276476, "lon": 22.639724519655402, "alt_km": 875.4595775848866, "timestamp": "2025-12-10T11:33:53.663022+00:00", "meta": {"OBJECT_NAME": "FENGYUN 1C DEB", "OBJECT_ID": "1999-025APD", "EPOCH": "2025-12-09T00:05:45.397824", "MEAN_MOTION": 14.09638411, "ECCENTRICITY": 0.00484067, "INCLINATION": 98.6523, "RA_OF_ASC_NODE": 3.6888, "ARG_OF_PERICENTER": 42.6968, "MEAN_ANOMALY": 317.7949, "EPHEMERIS_TYPE": 0, "CLASSIFICATION_TYPE": "U", "NORAD_CAT_ID": 30646, "ELEMENT_SET_NO": 999, "REV_AT_EPOCH": 96552, "BSTAR": 0.0010048504, "MEAN_MOTION_DOT": 1.738e-05, "MEAN_MOTION_DDOT": 0}, "tle": {"line1": "1 30646U 99025APD 25343.00399766  .00001738  00000+0  10049-2 0  9995", "line2": "2 30646  98.6523   3.6888 0048406  42.6968 317.7949 14.09638411965528"}}, "geometry": {"type": "Point", "coordinates": [22.639724519655402, -63.183129458276476]}}, {"type": "Feature", "properties": {"norad_id": 30647, "name": "FENGYUN 1C DEB", "group": "fengyun-1c-debris", "lat": 14.978711191719555, "lon": -86.07662352196367, "alt_km": 725.5894355084693, "timestamp": "2025-12-10T11:33:53.663034+00:00", "meta": {"OBJECT_NAME": "FENGYUN 1C DEB", "OBJECT_ID": "1999-025APE", "EPOCH": "2025-12-09T19:08:21.103872", "MEAN_MOTION": 14.56380638, "ECCENTRICITY": 0.0029026, "INCLINATION": 98.989, "RA_OF_ASC_NODE": 275.6135, "ARG_OF_PERICENTER": 183.5234, "MEAN_ANOMALY": 205.572, "EPHEMERIS_TYPE": 0, "CLASSIFICATION_TYPE": "U", "NORAD_CAT_ID": 30647, "ELEMENT_SET_NO": 999, "REV_AT_EPOCH": 97946, "BSTAR": 0.0035531, "MEAN_MOTION_DOT": 0.00015834, "MEAN_MOTION_DDOT": 0}, "tle": {"line1": "1 30647U 99025APE 25343.79746648  .00015834  00000+0  35531-2 0  9992", "line2": "2 30647  98.9890 275.6135 0029026 183.5234 205.5720 14.56380638979469"}}, "geometry": {"type": "Point", "coordinates": [-86.07662352196367, 14.978711191719555]}}]}